NORAD_CAT_ID,OBJECT_NAME,OBJECT_TYPE,EPOCH,MEAN_MOTION,ECCENTRICITY,INCLINATION,RA_OF_ASC_NODE,ARG_OF_PERICENTER,MEAN_ANOMALY,BSTAR,MEAN_MOTION_DOT,MEAN_MOTION_DDOT,TLE_LINE0,TLE_LINE1,TLE_LINE2,SEMIMAJOR_AXIS,PERIOD,APOGEE,PERIGEE,DECAYED
49733.0,STARLINK-3252,PAYLOAD,2023-06-06 19:11:04,15.08839982,9.49e-05,53.2177,359.2285,89.028,271.0821,8.3748e-05,1.045e-05,0.0,0 STARLINK-3252,1 49733U 21115K   23157.79935885  .00001045  00000-0  83748-4 0  9992,2 49733  53.2177 359.2285 0000949  89.0280 271.0821 15.08839982 83382,6917.88,95.438,540.402,539.089,0.0
49733.0,STARLINK-3252,PAYLOAD,2023-06-06 23:57:13,15.08847705,9.73e-05,53.2177,358.3362,87.6757,272.4346,0.00011396,1.527e-05,0.0,0 STARLINK-3252,1 49733U 21115K   23157.99807272  .00001527  00000-0  11396-3 0  9996,2 49733  53.2177 358.3362 0000973  87.6757 272.4346 15.08847705 84524,6917.857,95.437,540.395,539.049,0.0
49733.0,STARLINK-3252,PAYLOAD,2023-06-07 17:26:29,15.08834064,0.000114,53.2181,355.0632,82.5824,277.5298,8.0363e-05,9.91e-06,0.0,0 STARLINK-3252,1 49733U 21115K   23158.72672505  .00000991  00000-0  80363-4 0  9992,2 49733  53.2181 355.0632 0001140  82.5824 277.5298 15.08834064 84637,6917.899,95.438,540.552,538.975,0.0
49733.0,STARLINK-3252,PAYLOAD,2023-06-07 22:12:38,15.08839611,0.0001028,53.2181,354.1706,91.2366,268.8744,0.00011764,1.585e-05,0.0,0 STARLINK-3252,1 49733U 21115K   23158.92544055  .00001585  00000-0  11764-3 0  9990,2 49733  53.2181 354.1706 0001028  91.2366 268.8744 15.08839611 83554,6917.882,95.438,540.458,539.035,0.0
49733.0,STARLINK-3252,PAYLOAD,2023-06-08 12:31:06,15.08837538,0.0001026,53.2179,351.4972,82.6745,277.4364,7.7097e-05,9.39e-06,0.0,0 STARLINK-3252,1 49733U 21115K   23159.52160502  .00000939  00000-0  77097-4 0  9992,2 49733  53.2179 351.4972 0001026  82.6745 277.4364 15.08837538 83649,6917.888,95.438,540.463,539.043,0.0
49733.0,STARLINK-3252,PAYLOAD,2023-06-08 20:28:02,15.08844412,9.67e-05,53.2174,350.0108,85.4849,274.6253,4.9292e-05,4.97e-06,0.0,0 STARLINK-3252,1 49733U 21115K   23159.85280162  .00000497  00000-0  49292-4 0  9998,2 49733  53.2174 350.0108 0000967  85.4849 274.6253 15.08844412 84803,6917.867,95.437,540.401,539.063,0.0
49733.0,STARLINK-3252,PAYLOAD,2023-06-09 12:21:53,15.0883576,8.46e-05,53.2178,347.0379,62.2279,297.8799,0.00010479,1.38e-05,0.0,0 STARLINK-3252,1 49733U 21115K   23160.51520538  .00001380  00000-0  10479-3 0  9993,2 49733  53.2178 347.0379 0000846  62.2279 297.8799 15.08835760 83794,6917.893,95.438,540.344,539.173,0.0
49733.0,STARLINK-3252,PAYLOAD,2023-06-09 18:43:26,15.08840928,7.75e-05,53.2177,345.8485,84.1951,275.913,7.0719e-05,8.38e-06,0.0,0 STARLINK-3252,1 49733U 21115K   23160.78016329  .00000838  00000-0  70719-4 0  9991,2 49733  53.2177 345.8485 0000775  84.1951 275.9130 15.08840928 83831,6917.878,95.437,540.279,539.206,0.0
49733.0,STARLINK-3252,PAYLOAD,2023-06-10 05:51:07,15.08846038,0.0001067,53.2176,343.7664,81.5565,278.5548,6.8039e-05,7.95e-06,0.0,0 STARLINK-3252,1 49733U 21115K   23161.24384017  .00000795  00000-0  68039-4 0  9999,2 49733  53.2176 343.7664 0001067  81.5565 278.5548 15.08846038 83901,6917.862,95.437,540.465,538.989,0.0
49733.0,STARLINK-3252,PAYLOAD,2023-06-10 21:44:58,15.08847307,0.0001115,53.2177,340.7913,90.7846,269.3274,0.00010998,1.463e-05,0.0,0 STARLINK-3252,1 49733U 21115K   23161.90623765  .00001463  00000-0  10998-3 0  9991,2 49733  53.2177 340.7913 0001115  90.7846 269.3274 15.08847307 84000,6917.858,95.437,540.494,538.952,0.0
49733.0,STARLINK-3252,PAYLOAD,2023-06-11 12:03:27,15.08830984,0.0001211,53.2182,338.1131,98.8131,261.2998,0.00015342,2.154e-05,0.0,0 STARLINK-3252,1 49733U 21115K   23162.50240700  .00002154  00000-0  15342-3 0  9998,2 49733  53.2182 338.1131 0001211  98.8131 261.2998 15.08830984 85202,6917.908,95.438,540.611,538.935,0.0
49733.0,STARLINK-3252,PAYLOAD,2023-06-11 20:00:23,15.08844626,0.0001106,53.218,336.6264,93.869,266.2428,4.3711e-05,4.08e-06,0.0,0 STARLINK-3252,1 49733U 21115K   23162.83360043  .00000408  00000-0  43711-4 0  9999,2 49733  53.2180 336.6264 0001106  93.8690 266.2428 15.08844626 84141,6917.866,95.437,540.496,538.966,0.0
49733.0,STARLINK-3252,PAYLOAD,2023-06-13 03:48:06,15.08841455,9.64e-05,53.2178,330.6802,90.3142,269.796,8.9179e-06,-1.46e-06,0.0,0 STARLINK-3252,1 49733U 21115K   23164.15840292 -.00000146  00000-0  89179-5 0  9994,2 49733  53.2178 330.6802 0000964  90.3142 269.7960 15.08841455 85456,6917.876,95.437,540.408,539.074,0.0
49733.0,STARLINK-3252,PAYLOAD,2023-06-13 10:09:39,15.08832879,0.0001048,53.2185,329.4931,100.4774,259.6336,4.2862e-05,3.94e-06,0.0,0 STARLINK-3252,1 49733U 21115K   23164.42336843  .00000394  00000-0  42862-4 0  9997,2 49733  53.2185 329.4931 0001048 100.4774 259.6336 15.08832879 85490,6917.902,95.438,540.492,539.042,0.0
49733.0,STARLINK-3252,PAYLOAD,2023-06-13 18:06:34,15.08837572,0.0001075,53.2183,328.0061,97.3889,262.7226,4.4521e-05,4.21e-06,0.0,0 STARLINK-3252,1 49733U 21115K   23164.75456647  .00000421  00000-0  44521-4 0  9993,2 49733  53.2183 328.0061 0001075  97.3889 262.7226 15.08837572 84439,6917.888,95.438,540.496,539.009,0.0
49733.0,STARLINK-3252,PAYLOAD,2023-06-14 11:35:49,15.08835361,0.0001123,53.2191,324.7357,100.8721,259.2398,1.5143e-05,-4.7e-07,0.0,0 STARLINK-3252,1 49733U 21115K   23165.48321078 -.00000047  00000-0  15143-4 0  9996,2 49733  53.2191 324.7357 0001123 100.8721 259.2398 15.08835361 85658,6917.895,95.438,540.536,538.983,0.0
49733.0,STARLINK-3252,PAYLOAD,2023-06-14 19:32:45,15.08835476,0.0001168,53.2179,323.2463,87.6921,272.4204,4.228e-05,3.85e-06,0.0,0 STARLINK-3252,1 49733U 21115K   23165.81441064  .00000385  00000-0  42280-4 0  9997,2 49733  53.2179 323.2463 0001168  87.6921 272.4204 15.08835476 84591,6917.894,95.438,540.567,538.951,0.0
49733.0,STARLINK-3252,PAYLOAD,2023-06-15 11:26:36,15.08832498,0.0001004,53.2165,320.2733,95.3322,264.7785,6.1512e-05,6.91e-06,0.0,0 STARLINK-3252,1 49733U 21115K   23166.47681360  .00000691  00000-0  61512-4 0  9994,2 49733  53.2165 320.2733 0001004  95.3322 264.7785 15.08832498 84693,6917.903,95.438,540.463,539.074,0.0
49733.0,STARLINK-3252,PAYLOAD,2023-06-15 17:48:08,15.08842567,0.0001012,53.2178,319.0837,88.4328,271.678,7.2929e-05,8.73e-06,0.0,0 STARLINK-3252,1 49733U 21115K   23166.74176788  .00000873  00000-0  72929-4 0  9993,2 49733  53.2178 319.0837 0001012  88.4328 271.6780 15.08842567 85844,6917.873,95.437,540.438,539.037,0.0
49733.0,STARLINK-3252,PAYLOAD,2023-06-16 09:41:59,15.08842583,0.0001012,53.2183,316.1109,86.4783,273.6325,0.00014511,2.023e-05,0.0,0 STARLINK-3252,1 49733U 21115K   23167.40416562  .00002023  00000-0  14511-3 0  9995,2 49733  53.2183 316.1109 0001012  86.4783 273.6325 15.08842583 84836,6917.872,95.437,540.438,539.037,0.0
49733.0,STARLINK-3252,PAYLOAD,2023-06-16 16:03:31,15.08849217,8.44e-05,53.2169,314.9216,89.337,270.7719,0.00019417,2.805e-05,0.0,0 STARLINK-3252,1 49733U 21115K   23167.66911883  .00002805  00000-0  19417-3 0  9997,2 49733  53.2169 314.9216 0000844  89.3370 270.7719 15.08849217 85984,6917.852,95.437,540.301,539.133,0.0
49733.0,STARLINK-3252,PAYLOAD,2023-06-16 19:14:17,15.08855656,9.21e-05,53.2168,314.3268,89.9737,270.1361,0.00016618,2.359e-05,0.0,0 STARLINK-3252,1 49733U 21115K   23167.80159448  .00002359  00000-0  16618-3 0  9998,2 49733  53.2168 314.3268 0000921  89.9737 270.1361 15.08855656 84893,6917.833,95.437,540.335,539.06,0.0
49733.0,STARLINK-3252,PAYLOAD,2023-06-17 09:32:48,15.08828409,0.000141,53.2181,311.6505,96.7768,263.3385,-1.7587e-06,-3.16e-06,0.0,0 STARLINK-3252,1 49733U 21115K   23168.39777879 -.00000316  00000-0 -17587-5 0  9998,2 49733  53.2181 311.6505 0001410  96.7768 263.3385 15.08828409 86096,6917.916,95.438,540.756,538.805,0.0
49733.0,STARLINK-3252,PAYLOAD,2023-06-17 19:05:07,15.08827637,0.0001161,53.2178,309.866,107.7156,252.3963,-8.0168e-05,-1.563e-05,0.0,0 STARLINK-3252,1 49733U 21115K   23168.79522293 -.00001563  00000-0 -80168-4 0  9999,2 49733  53.2178 309.8660 0001161 107.7156 252.3963 15.08827637 85046,6917.918,95.438,540.586,538.98,0.0
49733.0,STARLINK-3252,PAYLOAD,2023-06-18 09:23:34,15.08841621,9.46e-05,53.22,307.1906,112.6725,247.4368,8.9602e-05,1.139e-05,0.0,0 STARLINK-3252,1 49733U 21115K   23169.39137049  .00001139  00000-0  89602-4 0  9996,2 49733  53.2200 307.1906 0000946 112.6725 247.4368 15.08841621 86249,6917.875,95.437,540.395,539.086,0.0
49733.0,STARLINK-3252,PAYLOAD,2023-06-18 18:55:52,15.08852326,0.0001122,53.2175,305.4062,109.3533,250.7581,0.00020333,2.951e-05,0.0,0 STARLINK-3252,1 49733U 21115K   23169.78880615  .00002951  00000-0  20333-3 0  9991,2 49733  53.2175 305.4062 0001122 109.3533 250.7581 15.08852326 85192,6917.843,95.437,540.484,538.932,0.0
49733.0,STARLINK-3252,PAYLOAD,2023-06-19 09:14:21,15.0883602,0.0001074,53.2167,302.7278,113.3205,246.79,0.00024258,3.575e-05,0.0,0 STARLINK-3252,1 49733U 21115K   23170.38497539  .00003575  00000-0  24258-3 0  9991,2 49733  53.2167 302.7278 0001074 113.3205 246.7900 15.08836020 86395,6917.893,95.438,540.501,539.015,0.0
49733.0,STARLINK-3252,PAYLOAD,2023-06-19 15:35:54,15.0884077,7.12e-05,53.2177,301.5411,96.7592,263.3481,0.00030458,4.563e-05,0.0,0 STARLINK-3252,1 49733U 21115K   23170.64993381  .00004563  00000-0  30458-3 0  9993,2 49733  53.2177 301.5411 0000712  96.7592 263.3481 15.08840770 85321,6917.878,95.438,540.236,539.25,0.0
49733.0,STARLINK-3252,PAYLOAD,2023-06-20 01:08:13,15.08842349,5.76e-05,53.2166,299.7559,83.2367,276.8691,0.00018732,2.695e-05,0.0,0 STARLINK-3252,1 49733U 21115K   23171.04737269  .00002695  00000-0  18732-3 0  9994,2 49733  53.2166 299.7559 0000576  83.2367 276.8691 15.08842349 85381,6917.873,95.437,540.137,539.34,0.0
49733.0,STARLINK-3252,PAYLOAD,2023-06-20 17:02:04,15.08843829,8.25e-05,53.2168,296.782,87.6352,272.4735,-1.4441e-05,-5.18e-06,0.0,0 STARLINK-3252,1 49733U 21115K   23171.70977087 -.00000518  00000-0 -14441-4 0  9999,2 49733  53.2168 296.7820 0000825  87.6352 272.4735 15.08843829 86599,6917.869,95.437,540.304,539.163,0.0
